{
    "links": {
        "self": "http://www.neowsapp.com/rest/v1/neo/3723853?api_key=iIulBulltgU6a56xZRHN4H3l9WmuAYTsLGpBGhQ2"
    },
    "id": "3723853",
    "neo_reference_id": "3723853",
    "name": "(2015 NF)",
    "designation": "2015 NF",
    "nasa_jpl_url": "http://ssd.jpl.nasa.gov/sbdb.cgi?sstr=3723853",
    "absolute_magnitude_h": 19.6,
    "estimated_diameter": {
        "kilometers": {
            "estimated_diameter_min": 0.3195618867,
            "estimated_diameter_max": 0.7145621017
        },
        "meters": {
            "estimated_diameter_min": 319.5618867213,
            "estimated_diameter_max": 714.5621017269
        },
        "miles": {
            "estimated_diameter_min": 0.1985664891,
            "estimated_diameter_max": 0.4440081677
        },
        "feet": {
            "estimated_diameter_min": 1048.4314204307,
            "estimated_diameter_max": 2344.3639258298
        }
    },
    "is_potentially_hazardous_asteroid": false,
    "close_approach_data": [
        {
            "close_approach_date": "2015-07-13",
            "close_approach_date_full": "2015-Jul-13 06:27",
            "epoch_date_close_approach": 1436768820000,
            "relative_velocity": {
                "kilometers_per_second": "29.4909047912",
                "kilometers_per_hour": "106167.2572483384",
                "miles_per_hour": "65968.2049274467"
            },
            "miss_distance": {
                "astronomical": "0.1661229766",
                "lunar": "64.6218378974",
                "kilometers": "24851643.457419842",
                "miles": "15442095.1849721396"
            },
            "orbiting_body": "Earth"
        },
        {
            "close_approach_date": "2015-07-29",
            "close_approach_date_full": "2015-Jul-29 11:28",
            "epoch_date_close_approach": 1438169280000,
            "relative_velocity": {
                "kilometers_per_second": "37.3070635728",
                "kilometers_per_hour": "134305.4288621876",
                "miles_per_hour": "83452.1705060632"
            },
            "miss_distance": {
                "astronomical": "0.0297418922",
                "lunar": "11.5695960658",
                "kilometers": "4449323.722889614",
                "miles": "2764681.5614161132"
            },
            "orbiting_body": "Venus"
        }
    ],
    "orbital_data": {
        "orbit_id": "14",
        "orbit_determination_date": "2017-04-06 08:32:52",
        "first_observation_date": "2015-07-03",
        "last_observation_date": "2015-07-13",
        "data_arc_in_days": 10,
        "observations_used": 114,
        "orbit_uncertainty": "9",
        "minimum_orbit_intersection": ".0683624",
        "jupiter_tisserand_invariant": "2.934",
        "epoch_osculation": "2457210.5",
        "eccentricity": ".8577672092624208",
        "semi_major_axis": "2.191083259223061",
        "inclination": "33.02585070211001",
        "ascending_node_longitude": "109.0254640650641",
        "orbital_period": "1184.640968763294",
        "perihelion_distance": ".3116438866976866",
        "perihelion_argument": "292.335763632627",
        "aphelion_distance": "4.070522631748434",
        "perihelion_time": "2457259.936315448596",
        "mean_anomaly": "344.9768207999139",
        "mean_motion": ".3038895407912678",
        "equinox": "J2000",
        "orbit_class": {
            "orbit_class_type": "APO",
            "orbit_class_description": "Near-Earth asteroid orbits which cross the Earth’s orbit similar to that of 1862 Apollo",
            "orbit_class_range": "a (semi-major axis) > 1.0 AU; q (perihelion) < 1.017 AU"
        }
    },
    "is_sentry_object": false
}